QIANFAN-33              
1 61566U 24185Q   25357.22187093  .00000432  00000+0  30254-3 0  9993
2 61566  88.9798  77.6424 0005080 298.5328  61.5337 13.96558114 70628
QIANFAN-34              
1 61567U 24185R   25357.21565278  .00000453  00000+0  28657-3 0  9995
2 61567  88.9772  77.1929 0003302 309.2171  50.8716 14.02314759 70824
QIANFAN-35              
1 61568U 24185S   25357.20852965  .00000794  00000+0  31438-3 0  9996
2 61568  88.9799  75.6537 0004703 239.0820 120.9913 14.27985248 71675
QIANFAN-36              
1 61569U 24185T   25357.22304327  .00000194  00000+0  26140-3 0  9991
2 61569  88.9783  79.9556 0006262  30.5242 329.6275 13.55591838 69349
QIANFAN-37              
1 62238U 24232B   25357.13932431  .00000077  00000+0  10049-3 0  9992
2 62238  89.0009  40.2801 0002609  92.2792 267.8658 13.50979841100574
QIANFAN-38              
1 62239U 24232C   25357.16399256  .00000090  00000+0  12064-3 0  9992
2 62239  89.0016  40.1941 0015512 158.5737 201.6067 13.50983043100635
QIANFAN-39              
1 62240U 24232D   25357.16432457  .00000329  00000+0  13329-3 0  9995
2 62240  89.0006  36.1173 0017712  50.6915 309.5845 14.25398544102871
QIANFAN-40              
1 62241U 24232E   25357.19690634  .00000098  00000+0  13367-3 0  9997
2 62241  89.0043  39.7782 0014299 165.4813 194.6752 13.50982806101008
